[{"OBJECT_NAME":"STARLINK-4334","OBJECT_ID":"2022-105T","EPOCH":"2026-03-09T15:00:13.080096","MEAN_MOTION":15.05652455,"ECCENTRICITY":0.0002338,"INCLINATION":97.6033,"RA_OF_ASC_NODE":311.1978,"ARG_OF_PERICENTER":71.2278,"MEAN_ANOMALY":288.9203,"EPHEMERIS_TYPE":0,"CLASSIFICATION_TYPE":"U","NORAD_CAT_ID":53665,"ELEMENT_SET_NO":999,"REV_AT_EPOCH":19329,"BSTAR":7.4915e-6,"MEAN_MOTION_DOT":4.7e-7,"MEAN_MOTION_DDOT":0},{"OBJECT_NAME":"COSMOS 397 DEB","OBJECT_ID":"1971-015X","EPOCH":"2026-03-09T14:49:46.278336","MEAN_MOTION":13.47468411,"ECCENTRICITY":0.0708542,"INCLINATION":65.8315,"RA_OF_ASC_NODE":149.8818,"ARG_OF_PERICENTER":13.1255,"MEAN_ANOMALY":348.7206,"EPHEMERIS_TYPE":0,"CLASSIFICATION_TYPE":"U","NORAD_CAT_ID":5098,"ELEMENT_SET_NO":999,"REV_AT_EPOCH":63764,"BSTAR":0.0005615,"MEAN_MOTION_DOT":1.586e-5,"MEAN_MOTION_DDOT":0}]
